{
  "norad_id": 53722,
  "name": "STARLINK-4700",
  "history": [
    {
      "epoch": "2026-03-28T16:37:47.609760",
      "apogee_km": 540.7674892906734,
      "perigee_km": 538.7004294480148,
      "latitude_deg": -43.60859211544434,
      "longitude_deg": -21.280433600069955,
      "semi_major_axis_km": 6917.870959369344,
      "eccentricity": 0.0001494,
      "inclination_deg": 53.2168,
      "raan_deg": 168.7206,
      "arg_perigee_deg": 101.4108,
      "mean_anomaly_deg": 258.7052,
      "mean_motion_rev_day": 15.08843085
    }
  ]
}