{"fetched_at":"2026-03-29T16:36:15Z","count":15609,"tles":[{"name":"STARLINK-4700","line1":"1 53722U 22107Y   26087.69291215  .00001238  00000+0  95838-4 0  9999","line2":"2 53722  53.2168 168.7206 0001494 101.4108 258.7052 15.08843085197276","category":"Starlink"}]}